ONEWEB-0314             
1 49100U 21075AB  23308.72906319  .00000101  00000+0  22813-3 0  9992
2 49100  87.9244 195.7663 0001658  96.9546 263.1774 13.17648734108739
ONEWEB-0315             
1 49101U 21075AC  23308.88155377  .00032264  00000+0  89563-1 0  9998
2 49101  87.9072 180.6448 0002039  71.1797 288.9553 13.12269504110866
ONEWEB-0316             
1 49102U 21075AD  23308.57030629  .00000137  00000+0  31572-3 0  9990
2 49102  87.9170 165.5690 0002068  84.7669 275.3699 13.18684732111263
ONEWEB-0317             
1 49103U 21075AE  23308.57034158  .00000322  00000+0  86049-3 0  9997
2 49103  87.9041 180.7111 0001321  76.9896 283.1380 13.12444741109847
ONEWEB-0318             
1 49104U 21075AF  23308.56819455  .00000054  00000+0  10479-3 0  9994
2 49104  87.9173 165.5623 0001966  85.4012 274.7345 13.18686966111228
ONEWEB-0319             
1 49105U 21075AG  23308.74593525  .00000131  00000+0  30548-3 0  9997
2 49105  87.9255 195.7821 0002130  91.6661 268.4715 13.17649087108777
ONEWEB-0323             
1 49106U 21075AH  23308.71329964  .00000558  00000+0  15149-2 0  9991
2 49106  87.9037 180.6714 0001774  83.5949 276.5382 13.12444293110222
ONEWEB-0329             
1 49107U 21075AJ  23308.44852489 -.00000058  00000+0 -18318-3 0  9994
2 49107  87.9257 195.8442 0001630  85.5184 274.6133 13.17647636107722
ONEWEB-0330             
1 49108U 21075AK  23308.60251819  .00008610  00000+0  22134-1 0  9992
2 49108  87.9242 195.8230 0001701 100.2955 259.8369 13.17607794107785
RSW-01                  
1 49112U 21076A   23308.85532460  .00000064  00000+0  86192-4 0  9991
2 49112  86.4059 139.2834 0014531 213.8151 146.2068 13.42733126107676
PAYLOAD B               
1 49113U 21076B   23308.82424118  .00000367  00000+0  20177-3 0  9995
2 49113  86.3995 105.5041 0018146 323.7365  36.2585 14.08852176112886
RSW-02                  
1 49114U 21076C   23308.85903546  .00000213  00000+0  34792-3 0  9994
2 49114  86.4059 139.2794 0018214 211.4168 148.5890 13.42757852107677
TJS-7                   
1 49115U 21077A   23307.93891865 -.00000122  00000+0  00000+0 0  9995
2 49115   0.5694  93.4740 0003475 240.4401 307.5542  1.00270639  8212
GAOFEN-5 02             
1 49122U 21079A   23308.85617576  .00000671  00000+0  15704-3 0  9991
2 49122  98.2035  22.5844 0002199  47.1787 312.9597 14.57719402114908
CHINASAT 9B             
1 49125U 21080A   23308.55692280 -.00000311  00000+0  00000+0 0  9999
2 49125   0.0353  84.7118 0003386 130.5040 130.2555  1.00271021  8054
STARLINK-3096           
1 49131U 21082B   23308.56276669 -.00009762  00000+0 -81054-3 0  9990
2 49131  70.0012 253.0420 0002686 271.4036  88.6815 14.98375705118725
STARLINK-3090           
1 49132U 21082C   23308.40071771 -.00003813  00000+0 -31222-3 0  9994
2 49132  69.9987 293.4865 0002572 262.2622  97.8245 14.98295626117718
STARLINK-3077           
1 49133U 21082D   23308.39216641  .00001480  00000+0  13180-3 0  9999
2 49133  69.9982 293.4844 0002843 267.1402  92.9431 14.98333437117718
STARLINK-3078           
1 49134U 21082E   23308.38799129  .00000914  00000+0  84358-4 0  9993
2 49134  69.9986 293.4988 0002792 267.0076  93.0764 14.98338122118911
STARLINK-3073           
1 49135U 21082F   23308.55859762 -.00006273  00000+0 -51804-3 0  9998
2 49135  70.0014 253.0465 0002574 271.4153  88.6711 14.98357280118730
STARLINK-3084           
1 49136U 21082G   23308.62141865 -.00002294  00000+0 -18444-3 0  9997
2 49136  70.0003 272.8990 0002570 274.0043  86.0822 14.98349706118250
STARLINK-3055           
1 49137U 21082H   23308.35020653  .00000778  00000+0  72984-4 0  9992
2 49137  69.9994 273.5880 0002659 268.1716  91.9139 14.98338965118208
STARLINK-3058           
1 49138U 21082J   23308.38382048  .00001553  00000+0  13790-3 0  9996
2 49138  69.9982 293.5129 0002904 267.4075  92.6752 14.98336984117710
STARLINK-3057           
1 49139U 21082K   23308.88406172  .00000237  00000+0  27626-4 0  9999
2 49139  69.9999 252.2332 0002951 272.5506  87.5315 14.98324535118779
STARLINK-3118           
1 49140U 21082L   23308.87571539  .00000592  00000+0  57444-4 0  9995
2 49140  69.9999 252.2592 0002879 265.8840  94.1990 14.98329108118778
STARLINK-3093           
1 49141U 21082M   23308.37965079  .00001296  00000+0  11641-3 0  9997
2 49141  69.9981 293.5256 0002949 267.3322  92.7500 14.98333515118919
STARLINK-3042           
1 49142U 21082N   23308.87154473  .00001194  00000+0  10785-3 0  9996
2 49142  70.0002 252.2735 0002783 269.1455  90.9385 14.98326033118776
STARLINK-3109           
1 49143U 21082P   23308.61306725 -.00009414  00000+0 -78150-3 0  9993
2 49143  70.0020 272.9260 0002118 286.4828  73.6098 14.98370726118235
STARLINK-3100           
1 49144U 21082Q   23308.37130380  .00000259  00000+0  29529-4 0  9992
2 49144  69.9986 293.5263 0002849 267.5571  92.5262 14.98333868117713
STARLINK-3119           
1 49145U 21082R   23308.58781199 -.00000133  00000+0 -33798-5 0  9993
2 49145  69.9995 252.9741 0002891 263.5510  96.5320 14.98331448118723
STARLINK-3116           
1 49146U 21082S   23308.60890591 -.00002391  00000+0 -19259-3 0  9996
2 49146  70.0000 272.9427 0002724 266.5820  93.5027 14.98340365119404
STARLINK-3071           
1 49147U 21082T   23308.60033185  .00001123  00000+0  10192-3 0  9992
2 49147  69.9993 252.9605 0002775 272.5822  87.5020 14.98327040118730
STARLINK-3048           
1 49148U 21082U   23308.33351862  .00001393  00000+0  12449-3 0  9994
2 49148  69.9994 273.6158 0002843 268.9793  91.1040 14.98334978118198
STARLINK-3053           
1 49149U 21082V   23308.70093413  .00000630  00000+0  60618-4 0  9996
2 49149  69.9992 292.6988 0002750 269.6164  90.4680 14.98332677118967
STARLINK-3104           
1 49150U 21082W   23308.36296040  .00000542  00000+0  53241-4 0  9997
2 49150  69.9984 293.5547 0002770 265.7449  94.3393 14.98332921118906
STARLINK-3102           
1 49151U 21082X   23308.57946782  .00000992  00000+0  90936-4 0  9997
2 49151  70.0011 253.0047 0002784 269.3281  90.7559 14.98331774119939
STARLINK-3081           
1 49152U 21082Y   23308.28738488  .00000410  00000+0  42153-4 0  9991
2 49152  70.0005 253.7340 0002618 269.6712  90.4147 14.98342950119808
STARLINK-3072           
1 49153U 21082Z   23308.57111743 -.00005163  00000+0 -42497-3 0  9995
2 49153  70.0008 253.0308 0002663 274.9304  85.1551 14.98351299118710
STARLINK-3068           
1 49154U 21082AA  23308.32934928  .00000957  00000+0  87987-4 0  9995
2 49154  69.9991 273.6292 0002895 267.0841  92.9987 14.98331210119277
STARLINK-3060           
1 49155U 21082AB  23308.56696576  .00005886  00000+0  50099-3 0  9995
2 49155  70.0004 253.0453 0002615 266.6568  93.4291 14.98309038119804
STARLINK-3085           
1 49156U 21082AC  23308.27904141  .00001143  00000+0  10357-3 0  9999
2 49156  69.9996 253.7610 0002945 269.0068  91.0754 14.98338800119764
STARLINK-3051           
1 49157U 21082AD  23308.32519410  .00001384  00000+0  12374-3 0  9995
2 49157  70.0010 273.6428 0002807 271.2803  88.8035 14.98324297119291
STARLINK-3083           
1 49158U 21082AE  23308.34960608  .00023465  00000+0  17374-2 0  9995
2 49158  69.9980 272.1055 0003002 314.8499  45.2418 15.03095552119331
STARLINK-3056           
1 49159U 21082AF  23308.35878791  .00000737  00000+0  69578-4 0  9990
2 49159  69.9983 293.5696 0002607 261.8933  98.1930 14.98333692118807
STARLINK-3095           
1 49160U 21082AG  23308.34626888  .00001069  00000+0  97376-4 0  9995
2 49160  70.0002 293.5832 0002574 262.5273  97.5594 14.98334021118776
STARLINK-3080           
1 49161U 21082AH  23308.35043812  .00000391  00000+0  40593-4 0  9993
2 49161  69.9983 293.5692 0002720 269.8703  90.2144 14.98337575118786
STARLINK-3082           
1 49162U 21082AJ  23308.67588519 -.00008530  00000+0 -70730-3 0  9997
2 49162  69.9994 292.7534 0002677 279.4997  80.5859 14.98368259118922
STARLINK-3088           
1 49163U 21082AK  23308.31683400  .00000677  00000+0  64531-4 0  9999
2 49163  69.9995 273.6710 0002737 265.9100  94.1746 14.98326849119354
STARLINK-3106           
1 49164U 21082AL  23308.30845552  .00005221  00000+0  44459-3 0  9993
2 49164  69.9992 273.6976 0002880 266.2843  93.7986 14.98371377119361
STARLINK-3052           
1 49165U 21082AM  23308.67188041 -.00005315  00000+0 -43766-3 0  9993
2 49165  69.9996 292.7693 0002392 279.1781  80.9108 14.98359434118965
STARLINK-3089           
1 49166U 21082AN  23308.31265893  .00000341  00000+0  36327-4 0  9994
2 49166  69.9990 273.6843 0002776 268.3325  91.7516 14.98333654119392
STARLINK-3054           
1 49167U 21082AP  23308.40051202  .00000777  00000+0  72882-4 0  9991
2 49167  69.9986 293.4574 0002742 264.4863  95.5983 14.98334803118910
STARLINK-3101           
1 49168U 21082AQ  23308.29596804  .00000079  00000+0  14421-4 0  9991
2 49168  69.9994 273.7127 0002495 263.1599  96.9276 14.98332580119395
STARLINK-3046           
1 49169U 21082AR  23308.63811942 -.00001127  00000+0 -86645-4 0  9997
2 49169  69.9992 272.8708 0003044 267.8993  92.1817 14.98325349119450
STARLINK-3074           
1 49170U 21082AS  23308.70929655  .00008289  00000+0  70233-3 0  9997
2 49170  69.9981 292.6836 0002784 272.9236  87.1605 14.98293859117760
STARLINK-3107           
1 49171U 21082AT  23308.66338934  .00004351  00000+0  37238-3 0  9991
2 49171  69.9988 292.8102 0002731 274.7508  85.3339 14.98313121118917
STARLINK-3091           
1 49172U 21082AU  23308.33769152  .00001525  00000+0  13554-3 0  9991
2 49172  70.0009 273.6141 0002783 266.4306  93.6535 14.98336456118192
STARLINK-3045           
1 49173U 21082AV  23308.29179371  .00001879  00000+0  16523-3 0  9996
2 49173  69.9999 273.7276 0002405 259.5491 100.5397 14.98336390118198
STARLINK-3047           
1 49174U 21082AW  23308.32505031  .00009361  00000+0  75053-3 0  9994
2 49174  69.9982 272.9785 0003619 299.0355  61.0442 15.00369254119386
